CTC2_L_00301001-01
1 48362U 22486FM  26037.47793981  .00000000  00000+0  00000-0 0  9990
2 48362  50.0000   0.0000 0000000   0.0000   0.0000 13.72670174    19
CTC2_L_00301001-02
1 48363U 26408ZI  26037.47793981  .00000000  00000+0  00000-0 0  9999
2 48363  50.0000   0.0000 0000000   0.0000  90.0000 13.72670174    19
CTC2_L_00301001-03
1 48364U 26305HG  26037.47793981  .00000000  00000+0  00000-0 0  9996
2 48364  50.0000   0.0000 0000000   0.0000 180.0000 13.72670174    10
CTC2_L_00301001-04
1 48365U 26001LW  26037.47793981  .00000000  00000+0  00000-0 0  9990
2 48365  50.0000   0.0000 0000000   0.0000 270.0000 13.72670174    11
CTC2_L_00301002-01
1 48366U 23999LK  26037.47793981  .00000000  00000+0  00000-0 0  9994
2 48366  50.0000  12.0000 0000000   0.0000  12.0000 13.72670174    19
CTC2_L_00301002-02
1 48367U 22093VC  26037.47793981  .00000000  00000+0  00000-0 0  9999
2 48367  50.0000  12.0000 0000000   0.0000 102.0000 13.72670174    10
CTC2_L_00301002-03
1 48368U 24151RO  26037.47793981  .00000000  00000+0  00000-0 0  9997
2 48368  50.0000  12.0000 0000000   0.0000 192.0000 13.72670174    10
CTC2_L_00301002-04
1 48369U 26129ZK  26037.47793981  .00000000  00000+0  00000-0 0  9995
2 48369  50.0000  12.0000 0000000   0.0000 282.0000 13.72670174    11
CTC2_L_00301003-01
1 48370U 23381RV  26037.47793981  .00000000  00000+0  00000-0 0  9994
2 48370  50.0000  24.0000 0000000   0.0000  24.0000 13.72670174    10
CTC2_L_00301003-02
1 48371U 25102FX  26037.47793981  .00000000  00000+0  00000-0 0  9998
2 48371  50.0000  24.0000 0000000   0.0000 114.0000 13.72670174    11
CTC2_L_00301003-03
1 48372U 24832JU  26037.47793981  .00000000  00000+0  00000-0 0  9998
2 48372  50.0000  24.0000 0000000   0.0000 204.0000 13.72670174    12
CTC2_L_00301003-04
1 48373U 22128QM  26037.47793981  .00000000  00000+0  00000-0 0  9995
2 48373  50.0000  24.0000 0000000   0.0000 294.0000 13.72670174    12
CTC2_L_00301004-01
1 48374U 24216FD  26037.47793981  .00000000  00000+0  00000-0 0  9996
2 48374  50.0000  36.0000 0000000   0.0000  36.0000 13.72670174    10
CTC2_L_00301004-02
1 48375U 26783TU  26037.47793981  .00000000  00000+0  00000-0 0  9998
2 48375  50.0000  36.0000 0000000   0.0000 126.0000 13.72670174    11
CTC2_L_00301004-03
1 48376U 24147DN  26037.47793981  .00000000  00000+0  00000-0 0  9991
2 48376  50.0000  36.0000 0000000   0.0000 216.0000 13.72670174    12
CTC2_L_00301004-04
1 48377U 25499LE  26037.47793981  .00000000  00000+0  00000-0 0  9993
2 48377  50.0000  36.0000 0000000   0.0000 306.0000 13.72670174    13
CTC2_L_00301005-01
1 48378U 25702UZ  26037.47793981  .00000000  00000+0  00000-0 0  9991
2 48378  50.0000  48.0000 0000000   0.0000  48.0000 13.72670174    10
CTC2_L_00301005-02
1 48379U 25553XV  26037.47793981  .00000000  00000+0  00000-0 0  9996
2 48379  50.0000  48.0000 0000000   0.0000 138.0000 13.72670174    11
CTC2_L_00301005-03
1 48380U 25259EJ  26037.47793981  .00000000  00000+0  00000-0 0  9991
2 48380  50.0000  48.0000 0000000   0.0000 228.0000 13.72670174    13
CTC2_L_00301005-04
1 48381U 24044GZ  26037.47793981  .00000000  00000+0  00000-0 0  9993
2 48381  50.0000  48.0000 0000000   0.0000 318.0000 13.72670174    14
CTC2_L_00301006-01
1 48382U 26724PD  26037.47793981  .00000000  00000+0  00000-0 0  9991
2 48382  50.0000  60.0000 0000000   0.0000  60.0000 13.72670174    13
CTC2_L_00301006-02
1 48383U 26891ZL  26037.47793981  .00000000  00000+0  00000-0 0  9997
2 48383  50.0000  60.0000 0000000   0.0000 150.0000 13.72670174    14
CTC2_L_00301006-03
1 48384U 24325RM  26037.47793981  .00000000  00000+0  00000-0 0  9998
2 48384  50.0000  60.0000 0000000   0.0000 240.0000 13.72670174    15
CTC2_L_00301006-04
1 48385U 25161WW  26037.47793981  .00000000  00000+0  00000-0 0  9998
2 48385  50.0000  60.0000 0000000   0.0000 330.0000 13.72670174    16
CTC2_L_00301007-01
1 48386U 24264HQ  26037.47793981  .00000000  00000+0  00000-0 0  9992
2 48386  50.0000  72.0000 0000000   0.0000  72.0000 13.72670174    13
CTC2_L_00301007-02
1 48387U 22010RW  26037.47793981  .00000000  00000+0  00000-0 0  9990
2 48387  50.0000  72.0000 0000000   0.0000 162.0000 13.72670174    14
CTC2_L_00301007-03
1 48388U 26417PB  26037.47793981  .00000000  00000+0  00000-0 0  9996
2 48388  50.0000  72.0000 0000000   0.0000 252.0000 13.72670174    15
CTC2_L_00301007-04
1 48389U 25476ID  26037.47793981  .00000000  00000+0  00000-0 0  9991
2 48389  50.0000  72.0000 0000000   0.0000 342.0000 13.72670174    16
CTC2_L_00301008-01
1 48390U 23065TD  26037.47793981  .00000000  00000+0  00000-0 0  9995
2 48390  50.0000  84.0000 0000000   0.0000  84.0000 13.72670174    14
CTC2_L_00301008-02
1 48391U 22219CX  26037.47793981  .00000000  00000+0  00000-0 0  9996
2 48391  50.0000  84.0000 0000000   0.0000 174.0000 13.72670174    15
CTC2_L_00301008-03
1 48392U 25739SZ  26037.47793981  .00000000  00000+0  00000-0 0  9997
2 48392  50.0000  84.0000 0000000   0.0000 264.0000 13.72670174    16
CTC2_L_00301008-04
1 48393U 25804JH  26037.47793981  .00000000  00000+0  00000-0 0  9991
2 48393  50.0000  84.0000 0000000   0.0000 354.0000 13.72670174    17
CTC2_L_00301009-01
1 48394U 25819HB  26037.47793981  .00000000  00000+0  00000-0 0  9998
2 48394  50.0000  96.0000 0000000   0.0000  96.0000 13.72670174    14
CTC2_L_00301009-02
1 48395U 23698MG  26037.47793981  .00000000  00000+0  00000-0 0  9992
2 48395  50.0000  96.0000 0000000   0.0000 186.0000 13.72670174    15
CTC2_L_00301009-03
1 48396U 25780KJ  26037.47793981  .00000000  00000+0  00000-0 0  9997
2 48396  50.0000  96.0000 0000000   0.0000 276.0000 13.72670174    16
CTC2_L_00301009-04
1 48397U 25662XX  26037.47793981  .00000000  00000+0  00000-0 0  9997
2 48397  50.0000  96.0000 0000000   0.0000   6.0000 13.72670174    18
CTC2_L_00301010-01
1 48398U 23420IN  26037.47793981  .00000000  00000+0  00000-0 0  9998
2 48398  50.0000 108.0000 0000000   0.0000 108.0000 13.72670174    16
CTC2_L_00301010-02
1 48399U 22359YV  26037.47793981  .00000000  00000+0  00000-0 0  9999
2 48399  50.0000 108.0000 0000000   0.0000 198.0000 13.72670174    16
CTC2_L_00301010-03
1 48400U 22625LS  26037.47793981  .00000000  00000+0  00000-0 0  9998
2 48400  50.0000 108.0000 0000000   0.0000 288.0000 13.72670174    19
CTC2_L_00301010-04
1 48401U 26568AC  26037.47793981  .00000000  00000+0  00000-0 0  9999
2 48401  50.0000 108.0000 0000000   0.0000  18.0000 13.72670174    11
CTC2_L_00301011-01
1 48402U 24500OC  26037.47793981  .00000000  00000+0  00000-0 0  9994
2 48402  50.0000 120.0000 0000000   0.0000 120.0000 13.72670174    10
CTC2_L_00301011-02
1 48403U 24447ML  26037.47793981  .00000000  00000+0  00000-0 0  9995
2 48403  50.0000 120.0000 0000000   0.0000 210.0000 13.72670174    11
CTC2_L_00301011-03
1 48404U 23175L   26037.47793981  .00000000  00000+0  00000-0 0  9993
2 48404  50.0000 120.0000 0000000   0.0000 300.0000 13.72670174    12
CTC2_L_00301011-04
1 48405U 22402UC  26037.47793981  .00000000  00000+0  00000-0 0  9996
2 48405  50.0000 120.0000 0000000   0.0000  30.0000 13.72670174    13
CTC2_L_00301012-01
1 48406U 26358FU  26037.47793981  .00000000  00000+0  00000-0 0  9991
2 48406  50.0000 132.0000 0000000   0.0000 132.0000 13.72670174    10
CTC2_L_00301012-02
1 48407U 22393DS  26037.47793981  .00000000  00000+0  00000-0 0  9997
2 48407  50.0000 132.0000 0000000   0.0000 222.0000 13.72670174    11
CTC2_L_00301012-03
1 48408U 23954WH  26037.47793981  .00000000  00000+0  00000-0 0  9992
2 48408  50.0000 132.0000 0000000   0.0000 312.0000 13.72670174    12
CTC2_L_00301012-04
1 48409U 22542AX  26037.47793981  .00000000  00000+0  00000-0 0  9995
2 48409  50.0000 132.0000 0000000   0.0000  42.0000 13.72670174    13
CTC2_L_00301013-01
1 48410U 25996BJ  26037.47793981  .00000000  00000+0  00000-0 0  9993
2 48410  50.0000 144.0000 0000000   0.0000 144.0000 13.72670174    11
CTC2_L_00301013-02
1 48411U 23998GC  26037.47793981  .00000000  00000+0  00000-0 0  9994
2 48411  50.0000 144.0000 0000000   0.0000 234.0000 13.72670174    12
CTC2_L_00301013-03
1 48412U 26503YS  26037.47793981  .00000000  00000+0  00000-0 0  9990
2 48412  50.0000 144.0000 0000000   0.0000 324.0000 13.72670174    13
CTC2_L_00301013-04
1 48413U 22584HK  26037.47793981  .00000000  00000+0  00000-0 0  9996
2 48413  50.0000 144.0000 0000000   0.0000  54.0000 13.72670174    14
CTC2_L_00301014-01
1 48414U 22411NE  26037.47793981  .00000000  00000+0  00000-0 0  9996
2 48414  50.0000 156.0000 0000000   0.0000 156.0000 13.72670174    11
CTC2_L_00301014-02
1 48415U 25928QR  26037.47793981  .00000000  00000+0  00000-0 0  9993
2 48415  50.0000 156.0000 0000000   0.0000 246.0000 13.72670174    12
CTC2_L_00301014-03
1 48416U 22020UG  26037.47793981  .00000000  00000+0  00000-0 0  9994
2 48416  50.0000 156.0000 0000000   0.0000 336.0000 13.72670174    13
CTC2_L_00301014-04
1 48417U 26343PM  26037.47793981  .00000000  00000+0  00000-0 0  9997
2 48417  50.0000 156.0000 0000000   0.0000  66.0000 13.72670174    14
CTC2_L_00301015-01
1 48418U 22452VU  26037.47793981  .00000000  00000+0  00000-0 0  9995
2 48418  50.0000 168.0000 0000000   0.0000 168.0000 13.72670174    11
CTC2_L_00301015-02
1 48419U 24996EL  26037.47793981  .00000000  00000+0  00000-0 0  9991
2 48419  50.0000 168.0000 0000000   0.0000 258.0000 13.72670174    12
CTC2_L_00301015-03
1 48420U 25585GO  26037.47793981  .00000000  00000+0  00000-0 0  9998
2 48420  50.0000 168.0000 0000000   0.0000 348.0000 13.72670174    14
CTC2_L_00301015-04
1 48421U 25468QG  26037.47793981  .00000000  00000+0  00000-0 0  9999
2 48421  50.0000 168.0000 0000000   0.0000  78.0000 13.72670174    15
CTC2_L_00301016-01
1 48422U 25718DE  26037.47793981  .00000000  00000+0  00000-0 0  9998
2 48422  50.0000 180.0000 0000000   0.0000 180.0000 13.72670174    14
CTC2_L_00301016-02
1 48423U 26431RJ  26037.47793981  .00000000  00000+0  00000-0 0  9992
2 48423  50.0000 180.0000 0000000   0.0000 270.0000 13.72670174    15
